[{"OBJECT_NAME":"STARLINK-34810","OBJECT_ID":"2025-165N","EPOCH":"2026-03-09T17:25:30.860832","MEAN_MOTION":15.0565435,"ECCENTRICITY":0.00011921,"INCLINATION":97.6017,"RA_OF_ASC_NODE":147.2304,"ARG_OF_PERICENTER":108.3735,"MEAN_ANOMALY":251.7622,"EPHEMERIS_TYPE":0,"CLASSIFICATION_TYPE":"U","NORAD_CAT_ID":65068,"ELEMENT_SET_NO":999,"REV_AT_EPOCH":3479,"BSTAR":0.00027894492,"MEAN_MOTION_DOT":3.967e-5,"MEAN_MOTION_DDOT":0},{"OBJECT_NAME":"DMSP 5D-2 F13 DEB","OBJECT_ID":"1995-015HF","EPOCH":"2026-03-08T15:33:20.356128","MEAN_MOTION":15.01113693,"ECCENTRICITY":0.00168904,"INCLINATION":98.8624,"RA_OF_ASC_NODE":112.9575,"ARG_OF_PERICENTER":188.2899,"MEAN_ANOMALY":171.8045,"EPHEMERIS_TYPE":0,"CLASSIFICATION_TYPE":"U","NORAD_CAT_ID":42289,"ELEMENT_SET_NO":999,"REV_AT_EPOCH":56056,"BSTAR":0.014483506,"MEAN_MOTION_DOT":0.00190863,"MEAN_MOTION_DDOT":0}]
